[{"OBJECT_NAME":"OBJECT H","OBJECT_ID":"2025-055H","EPOCH":"2026-03-09T23:29:50.051328","MEAN_MOTION":15.30330066,"ECCENTRICITY":0.00075967,"INCLINATION":97.636,"RA_OF_ASC_NODE":211.9572,"ARG_OF_PERICENTER":140.4354,"MEAN_ANOMALY":219.7441,"EPHEMERIS_TYPE":0,"CLASSIFICATION_TYPE":"U","NORAD_CAT_ID":63298,"ELEMENT_SET_NO":999,"REV_AT_EPOCH":5423,"BSTAR":0.0015582864,"MEAN_MOTION_DOT":0.00045901,"MEAN_MOTION_DDOT":0},{"OBJECT_NAME":"STARLINK-33629","OBJECT_ID":"2025-063AB","EPOCH":"2026-03-09T05:37:41.873088","MEAN_MOTION":15.30202428,"ECCENTRICITY":0.00012533,"INCLINATION":53.1601,"RA_OF_ASC_NODE":52.1663,"ARG_OF_PERICENTER":81.3819,"MEAN_ANOMALY":278.7324,"EPHEMERIS_TYPE":0,"CLASSIFICATION_TYPE":"U","NORAD_CAT_ID":63388,"ELEMENT_SET_NO":999,"REV_AT_EPOCH":5472,"BSTAR":0.00090478826,"MEAN_MOTION_DOT":0.00026536,"MEAN_MOTION_DDOT":0}]
